[{"OBJECT_NAME":"STARLINK-5852","OBJECT_ID":"2023-037V","EPOCH":"2026-03-09T22:17:22.804224","MEAN_MOTION":14.9832848,"ECCENTRICITY":0.00025234,"INCLINATION":69.9979,"RA_OF_ASC_NODE":283.9509,"ARG_OF_PERICENTER":270.8029,"MEAN_ANOMALY":89.2841,"EPHEMERIS_TYPE":0,"CLASSIFICATION_TYPE":"U","NORAD_CAT_ID":55933,"ELEMENT_SET_NO":999,"REV_AT_EPOCH":16401,"BSTAR":9.49923e-7,"MEAN_MOTION_DOT":-8.2e-7,"MEAN_MOTION_DDOT":0},{"OBJECT_NAME":"KUIPER-00106","OBJECT_ID":"2025-171N","EPOCH":"2026-03-09T10:38:15.017568","MEAN_MOTION":14.97188469,"ECCENTRICITY":0.00079317,"INCLINATION":51.8933,"RA_OF_ASC_NODE":156.0933,"ARG_OF_PERICENTER":97.4823,"MEAN_ANOMALY":262.7049,"EPHEMERIS_TYPE":0,"CLASSIFICATION_TYPE":"U","NORAD_CAT_ID":65144,"ELEMENT_SET_NO":999,"REV_AT_EPOCH":3290,"BSTAR":0.00038673669,"MEAN_MOTION_DOT":4.265e-5,"MEAN_MOTION_DDOT":0}]
